{
    "links": {
        "self": "http://www.neowsapp.com/rest/v1/neo/3788042?api_key=iIulBulltgU6a56xZRHN4H3l9WmuAYTsLGpBGhQ2"
    },
    "id": "3788042",
    "neo_reference_id": "3788042",
    "name": "(2017 UW5)",
    "designation": "2017 UW5",
    "nasa_jpl_url": "http://ssd.jpl.nasa.gov/sbdb.cgi?sstr=3788042",
    "absolute_magnitude_h": 28.7,
    "estimated_diameter": {
        "kilometers": {
            "estimated_diameter_min": 0.0048367649,
            "estimated_diameter_max": 0.0108153351
        },
        "meters": {
            "estimated_diameter_min": 4.8367648822,
            "estimated_diameter_max": 10.8153350678
        },
        "miles": {
            "estimated_diameter_min": 0.0030054254,
            "estimated_diameter_max": 0.0067203356
        },
        "feet": {
            "estimated_diameter_min": 15.8686516961,
            "estimated_diameter_max": 35.4833839037
        }
    },
    "is_potentially_hazardous_asteroid": false,
    "close_approach_data": [
        {
            "close_approach_date": "2017-10-21",
            "close_approach_date_full": "2017-Oct-21 01:54",
            "epoch_date_close_approach": 1508550840000,
            "relative_velocity": {
                "kilometers_per_second": "15.0308424883",
                "kilometers_per_hour": "54111.0329577482",
                "miles_per_hour": "33622.4915619964"
            },
            "miss_distance": {
                "astronomical": "0.003126145",
                "lunar": "1.216070405",
                "kilometers": "467664.63331115",
                "miles": "290593.32814787"
            },
            "orbiting_body": "Moon"
        },
        {
            "close_approach_date": "2017-10-21",
            "close_approach_date_full": "2017-Oct-21 08:47",
            "epoch_date_close_approach": 1508575620000,
            "relative_velocity": {
                "kilometers_per_second": "14.8599702107",
                "kilometers_per_hour": "53495.892758651",
                "miles_per_hour": "33240.2673643963"
            },
            "miss_distance": {
                "astronomical": "0.002775218",
                "lunar": "1.079559802",
                "kilometers": "415166.70158566",
                "miles": "257972.626015708"
            },
            "orbiting_body": "Earth"
        },
        {
            "close_approach_date": "2039-07-29",
            "close_approach_date_full": "2039-Jul-29 20:44",
            "epoch_date_close_approach": 2195585040000,
            "relative_velocity": {
                "kilometers_per_second": "4.2839955415",
                "kilometers_per_hour": "15422.3839495003",
                "miles_per_hour": "9582.8696268437"
            },
            "miss_distance": {
                "astronomical": "1.3018654214",
                "lunar": "506.4256489246",
                "kilometers": "194756294.068092418",
                "miles": "121015949.5497666484"
            },
            "orbiting_body": "Juptr"
        },
        {
            "close_approach_date": "2199-08-01",
            "close_approach_date_full": "2199-Aug-01 08:37",
            "epoch_date_close_approach": 7244930220000,
            "relative_velocity": {
                "kilometers_per_second": "12.2263316346",
                "kilometers_per_hour": "44014.7938846237",
                "miles_per_hour": "27349.0812334763"
            },
            "miss_distance": {
                "astronomical": "0.1406971037",
                "lunar": "54.7311733393",
                "kilometers": "21047987.028689119",
                "miles": "13078612.6762990822"
            },
            "orbiting_body": "Earth"
        }
    ],
    "orbital_data": {
        "orbit_id": "1",
        "orbit_determination_date": "2017-10-26 18:31:12",
        "first_observation_date": "2017-10-23",
        "last_observation_date": "2017-10-26",
        "data_arc_in_days": 3,
        "observations_used": 18,
        "orbit_uncertainty": "8",
        "minimum_orbit_intersection": ".00120778",
        "jupiter_tisserand_invariant": "3.106",
        "epoch_osculation": "2458050.5",
        "eccentricity": ".6638728509527533",
        "semi_major_axis": "2.517502153140259",
        "inclination": "3.256506288690086",
        "ascending_node_longitude": "208.8227863731021",
        "orbital_period": "1458.99298198905",
        "perihelion_distance": ".8462008214553406",
        "perihelion_argument": "127.4018648718177",
        "aphelion_distance": "4.188803484825178",
        "perihelion_time": "2458012.517952275339",
        "mean_anomaly": "9.371900584632545",
        "mean_motion": ".246745532325461",
        "equinox": "J2000",
        "orbit_class": {
            "orbit_class_type": "APO",
            "orbit_class_description": "Near-Earth asteroid orbits which cross the Earth’s orbit similar to that of 1862 Apollo",
            "orbit_class_range": "a (semi-major axis) > 1.0 AU; q (perihelion) < 1.017 AU"
        }
    },
    "is_sentry_object": false
}